{"type": "FeatureCollection", "features": [ {"type": "Feature", "properties": {"norad_id": 29906, "name": "FENGYUN 1C DEB", "group": "fengyun-1c-debris", "lat": -77.28056777315588, "lon": -118.80516073086878, "alt_km": 755.8922447441582, "timestamp": "2025-12-26T03:50:12.365363+00:00", "meta": {"OBJECT_NAME": "FENGYUN 1C DEB", "OBJECT_ID": "1999-025HC", "EPOCH": "2025-12-25T20:00:55.912608", "MEAN_MOTION": 14.49853127, "ECCENTRICITY": 0.0036196, "INCLINATION": 98.705, "RA_OF_ASC_NODE": 103.6066, "ARG_OF_PERICENTER": 110.6614, "MEAN_ANOMALY": 249.8465, "EPHEMERIS_TYPE": 0, "CLASSIFICATION_TYPE": "U", "NORAD_CAT_ID": 29906, "ELEMENT_SET_NO": 999, "REV_AT_EPOCH": 98347, "BSTAR": 0.0022714, "MEAN_MOTION_DOT": 8.804e-05, "MEAN_MOTION_DDOT": 0}, "tle": {"line1": "1 29906U 99025HC  25359.83398047  .00008804  00000+0  22714-2 0  9994", "line2": "2 29906  98.7050 103.6066 0036196 110.6614 249.8465 14.49853127983476"}}, "geometry": {"type": "Point", "coordinates": [-118.80516073086878, -77.28056777315588]}}, {"type": "Feature", "properties": {"norad_id": 29907, "name": "FENGYUN 1C DEB", "group": "fengyun-1c-debris", "lat": 9.660936301959433, "lon": 65.47603933332009, "alt_km": 911.786190442399, "timestamp": "2025-12-26T03:50:12.365374+00:00", "meta": {"OBJECT_NAME": "FENGYUN 1C DEB", "OBJECT_ID": "1999-025HD", "EPOCH": "2025-12-25T18:09:58.057344", "MEAN_MOTION": 14.11708121, "ECCENTRICITY": 0.0084882, "INCLINATION": 99.1107, "RA_OF_ASC_NODE": 66.6323, "ARG_OF_PERICENTER": 213.3645, "MEAN_ANOMALY": 269.4735, "EPHEMERIS_TYPE": 0, "CLASSIFICATION_TYPE": "U", "NORAD_CAT_ID": 29907, "ELEMENT_SET_NO": 999, "REV_AT_EPOCH": 96782, "BSTAR": 0.0014835, "MEAN_MOTION_DOT": 2.748e-05, "MEAN_MOTION_DDOT": 0}, "tle": {"line1": "1 29907U 99025HD  25359.75692196  .00002748  00000+0  14835-2 0  9994", "line2": "2 29907  99.1107  66.6323 0084882 213.3645 269.4735 14.11708121967820"}}, "geometry": {"type": "Point", "coordinates": [65.47603933332009, 9.660936301959433]}}, {"type": "Feature", "properties": {"norad_id": 29909, "name": "FENGYUN 1C DEB", "group": "fengyun-1c-debris", "lat": -59.240237842401825, "lon": -90.38282867885371, "alt_km": 716.3897825509648, "timestamp": "2025-12-26T03:50:12.365384+00:00", "meta": {"OBJECT_NAME": "FENGYUN 1C DEB", "OBJECT_ID": "1999-025HF", "EPOCH": "2025-12-25T20:41:19.861152", "MEAN_MOTION": 14.55335796, "ECCENTRICITY": 0.0038205, "INCLINATION": 98.6343, "RA_OF_ASC_NODE": 104.101, "ARG_OF_PERICENTER": 333.6026, "MEAN_ANOMALY": 147.6487, "EPHEMERIS_TYPE": 0, "CLASSIFICATION_TYPE": "U", "NORAD_CAT_ID": 29909, "ELEMENT_SET_NO": 999, "REV_AT_EPOCH": 98596, "BSTAR": 0.0021306, "MEAN_MOTION_DOT": 9.293e-05, "MEAN_MOTION_DDOT": 0}, "tle": {"line1": "1 29909U 99025HF  25359.86203543  .00009293  00000+0  21306-2 0  9995", "line2": "2 29909  98.6343 104.1010 0038205 333.6026 147.6487 14.55335796985964"}}, "geometry": {"type": "Point", "coordinates": [-90.38282867885371, -59.240237842401825]}}, {"type": "Feature", "properties": {"norad_id": 29911, "name": "FENGYUN 1C DEB", "group": "fengyun-1c-debris", "lat": 70.06812200802257, "lon": 18.02203785445107, "alt_km": 807.5169253340791, "timestamp": "2025-12-26T03:50:12.365394+00:00", "meta": {"OBJECT_NAME": "FENGYUN 1C DEB", "OBJECT_ID": "1999-025HH", "EPOCH": "2025-12-25T14:34:22.627776", "MEAN_MOTION": 14.1889157, "ECCENTRICITY": 0.0027393, "INCLINATION": 98.7141, "RA_OF_ASC_NODE": 42.4997, "ARG_OF_PERICENTER": 115.3378, "MEAN_ANOMALY": 15.5097, "EPHEMERIS_TYPE": 0, "CLASSIFICATION_TYPE": "U", "NORAD_CAT_ID": 29911, "ELEMENT_SET_NO": 999, "REV_AT_EPOCH": 97613, "BSTAR": 0.00070253, "MEAN_MOTION_DOT": 1.425e-05, "MEAN_MOTION_DDOT": 0}, "tle": {"line1": "1 29911U 99025HH  25359.60720634  .00001425  00000+0  70253-3 0  9990", "line2": "2 29911  98.7141  42.4997 0027393 115.3378  15.5097 14.18891570976138"}}, "geometry": {"type": "Point", "coordinates": [18.02203785445107, 70.06812200802257]}}, {"type": "Feature", "properties": {"norad_id": 29912, "name": "FENGYUN 1C DEB", "group": "fengyun-1c-debris", "lat": 61.716040752687825, "lon": -65.44310997014249, "alt_km": 728.0245626502747, "timestamp": "2025-12-26T03:50:12.365404+00:00", "meta": {"OBJECT_NAME": "FENGYUN 1C DEB", "OBJECT_ID": "1999-025HJ", "EPOCH": "2025-12-25T07:28:51.547872", "MEAN_MOTION": 14.43148633, "ECCENTRICITY": 0.0043313, "INCLINATION": 98.7381, "RA_OF_ASC_NODE": 97.0787, "ARG_OF_PERICENTER": 182.7109, "MEAN_ANOMALY": 210.7405, "EPHEMERIS_TYPE": 0, "CLASSIFICATION_TYPE": "U", "NORAD_CAT_ID": 29912, "ELEMENT_SET_NO": 999, "REV_AT_EPOCH": 98220, "BSTAR": 0.0021777, "MEAN_MOTION_DOT": 7.358e-05, "MEAN_MOTION_DDOT": 0}, "tle": {"line1": "1 29912U 99025HJ  25359.31170773  .00007358  00000+0  21777-2 0  9999", "line2": "2 29912  98.7381  97.0787 0043313 182.7109 210.7405 14.43148633982208"}}, "geometry": {"type": "Point", "coordinates": [-65.44310997014249, 61.716040752687825]}}, {"type": "Feature", "properties": {"norad_id": 29913, "name": "FENGYUN 1C DEB", "group": "fengyun-1c-debris", "lat": -52.792511962608486, "lon": 10.398412886472213, "alt_km": 862.0303907007392, "timestamp": "2025-12-26T03:50:12.365414+00:00", "meta": {"OBJECT_NAME": "FENGYUN 1C DEB", "OBJECT_ID": "1999-025HK", "EPOCH": "2025-12-24T23:20:55.950720", "MEAN_MOTION": 14.07395312, "ECCENTRICITY": 0.00619793, "INCLINATION": 98.788, "RA_OF_ASC_NODE": 357.4882, "ARG_OF_PERICENTER": 236.4585, "MEAN_ANOMALY": 178.518, "EPHEMERIS_TYPE": 0, "CLASSIFICATION_TYPE": "U", "NORAD_CAT_ID": 29913, "ELEMENT_SET_NO": 999, "REV_AT_EPOCH": 97137, "BSTAR": 0.00020520339, "MEAN_MOTION_DOT": 3.08e-06, "MEAN_MOTION_DDOT": 0}, "tle": {"line1": "1 29913U 99025HK  25358.97286980  .00000308  00000+0  20520-3 0  9993", "line2": "2 29913  98.7880 357.4882 0061979 236.4585 178.5180 14.07395312971370"}}, "geometry": {"type": "Point", "coordinates": [10.398412886472213, -52.792511962608486]}}, {"type": "Feature", "properties": {"norad_id": 29914, "name": "FENGYUN 1C DEB", "group": "fengyun-1c-debris", "lat": -59.66299130376484, "lon": -167.06894730745162, "alt_km": 915.3994360777224, "timestamp": "2025-12-26T03:50:12.365425+00:00", "meta": {"OBJECT_NAME": "FENGYUN 1C DEB", "OBJECT_ID": "1999-025HL", "EPOCH": "2025-12-25T15:18:34.363008", "MEAN_MOTION": 14.03132698, "ECCENTRICITY": 0.0036646, "INCLINATION": 98.8422, "RA_OF_ASC_NODE": 27.8495, "ARG_OF_PERICENTER": 79.9894, "MEAN_ANOMALY": 45.5373, "EPHEMERIS_TYPE": 0, "CLASSIFICATION_TYPE": "U", "NORAD_CAT_ID": 29914, "ELEMENT_SET_NO": 999, "REV_AT_EPOCH": 96967, "BSTAR": -5.2456e-06, "MEAN_MOTION_DOT": -5.1e-07, "MEAN_MOTION_DDOT": 0}, "tle": {"line1": "1 29914U 99025HL  25359.63789772 -.00000051  00000+0 -52456-5 0  9997", "line2": "2 29914  98.8422  27.8495 0036646  79.9894  45.5373 14.03132698969677"}}, "geometry": {"type": "Point", "coordinates": [-167.06894730745162, -59.66299130376484]}}, {"type": "Feature", "properties": {"norad_id": 29916, "name": "FENGYUN 1C DEB", "group": "fengyun-1c-debris", "lat": 7.029052524721826, "lon": -160.3140844833695, "alt_km": 919.3871316904406, "timestamp": "2025-12-26T03:50:12.365435+00:00", "meta": {"OBJECT_NAME": "FENGYUN 1C DEB", "OBJECT_ID": "1999-025HN", "EPOCH": "2025-12-25T00:43:22.615968", "MEAN_MOTION": 13.56997996, "ECCENTRICITY": 0.02715305, "INCLINATION": 99.1936, "RA_OF_ASC_NODE": 17.485, "ARG_OF_PERICENTER": 227.0532, "MEAN_ANOMALY": 191.9901, "EPHEMERIS_TYPE": 0, "CLASSIFICATION_TYPE": "U", "NORAD_CAT_ID": 29916, "ELEMENT_SET_NO": 999, "REV_AT_EPOCH": 93619, "BSTAR": 0.0005909459, "MEAN_MOTION_DOT": 4.92e-06, "MEAN_MOTION_DDOT": 0}, "tle": {"line1": "1 29916U 99025HN  25359.03012287  .00000492  00000+0  59095-3 0  9994", "line2": "2 29916  99.1936  17.4850 0271530 227.0532 191.9901 13.56997996936192"}}, "geometry": {"type": "Point", "coordinates": [-160.3140844833695, 7.029052524721826]}}, {"type": "Feature", "properties": {"norad_id": 29917, "name": "FENGYUN 1C DEB", "group": "fengyun-1c-debris", "lat": -16.1897615281536, "lon": 38.17948318843941, "alt_km": 1048.8473784627122, "timestamp": "2025-12-26T03:50:12.365445+00:00", "meta": {"OBJECT_NAME": "FENGYUN 1C DEB", "OBJECT_ID": "1999-025HP", "EPOCH": "2025-12-25T13:11:03.954912", "MEAN_MOTION": 13.70445508, "ECCENTRICITY": 0.022355, "INCLINATION": 98.8764, "RA_OF_ASC_NODE": 220.2158, "ARG_OF_PERICENTER": 90.4023, "MEAN_ANOMALY": 332.9971, "EPHEMERIS_TYPE": 0, "CLASSIFICATION_TYPE": "U", "NORAD_CAT_ID": 29917, "ELEMENT_SET_NO": 999, "REV_AT_EPOCH": 94306, "BSTAR": 0.0013714, "MEAN_MOTION_DOT": 1.41e-05, "MEAN_MOTION_DDOT": 0}, "tle": {"line1": "1 29917U 99025HP  25359.54935133  .00001410  00000+0  13714-2 0  9993", "line2": "2 29917  98.8764 220.2158 0223550  90.4023 332.9971 13.70445508943060"}}, "geometry": {"type": "Point", "coordinates": [38.17948318843941, -16.1897615281536]}}, {"type": "Feature", "properties": {"norad_id": 29918, "name": "FENGYUN 1C DEB", "group": "fengyun-1c-debris", "lat": -12.195002616865938, "lon": -99.02501114052022, "alt_km": 782.3702886602623, "timestamp": "2025-12-26T03:50:12.365456+00:00", "meta": {"OBJECT_NAME": "FENGYUN 1C DEB", "OBJECT_ID": "1999-025HQ", "EPOCH": "2025-12-25T19:07:54.986880", "MEAN_MOTION": 14.33697895, "ECCENTRICITY": 0.0013595, "INCLINATION": 98.853, "RA_OF_ASC_NODE": 82.5343, "ARG_OF_PERICENTER": 275.1653, "MEAN_ANOMALY": 206.2632, "EPHEMERIS_TYPE": 0, "CLASSIFICATION_TYPE": "U", "NORAD_CAT_ID": 29918, "ELEMENT_SET_NO": 999, "REV_AT_EPOCH": 97981, "BSTAR": 0.0015555, "MEAN_MOTION_DOT": 4.277e-05, "MEAN_MOTION_DDOT": 0}, "tle": {"line1": "1 29918U 99025HQ  25359.79716420  .00004277  00000+0  15555-2 0  9996", "line2": "2 29918  98.8530  82.5343 0013595 275.1653 206.2632 14.33697895979811"}}, "geometry": {"type": "Point", "coordinates": [-99.02501114052022, -12.195002616865938]}}]}